{"type": "FeatureCollection", "features": [ {"type": "Feature", "properties": {"norad_id": 34303, "name": "COSMOS 2251 DEB", "group": "cosmos-2251-debris", "lat": 33.84114383779406, "lon": 109.98649908249503, "alt_km": 665.1194159725965, "timestamp": "2025-12-05T20:43:02.447507+00:00", "meta": {"OBJECT_NAME": "COSMOS 2251 DEB", "OBJECT_ID": "1993-036MZ", "EPOCH": "2025-12-05T07:25:25.089024", "MEAN_MOTION": 14.5430159, "ECCENTRICITY": 0.013488, "INCLINATION": 74.0054, "RA_OF_ASC_NODE": 302.1237, "ARG_OF_PERICENTER": 82.3788, "MEAN_ANOMALY": 41.9638, "EPHEMERIS_TYPE": 0, "CLASSIFICATION_TYPE": "U", "NORAD_CAT_ID": 34303, "ELEMENT_SET_NO": 999, "REV_AT_EPOCH": 87854, "BSTAR": 0.0024204536, "MEAN_MOTION_DOT": 0.00011585, "MEAN_MOTION_DDOT": 0}, "tle": {"line1": "1 34303U 93036MZ  25339.30931816  .00011585  00000+0  24205-2 0  9991", "line2": "2 34303  74.0054 302.1237 0134880  82.3788  41.9638 14.54301590878548"}}, "geometry": {"type": "Point", "coordinates": [109.98649908249503, 33.84114383779406]}}, {"type": "Feature", "properties": {"norad_id": 34304, "name": "COSMOS 2251 DEB", "group": "cosmos-2251-debris", "lat": -51.81257862323568, "lon": 113.90206186314448, "alt_km": 693.1111661745535, "timestamp": "2025-12-05T20:43:02.447517+00:00", "meta": {"OBJECT_NAME": "COSMOS 2251 DEB", "OBJECT_ID": "1993-036NA", "EPOCH": "2025-12-04T03:46:45.370848", "MEAN_MOTION": 14.37735026, "ECCENTRICITY": 0.01288653, "INCLINATION": 74.012, "RA_OF_ASC_NODE": 138.4236, "ARG_OF_PERICENTER": 277.9676, "MEAN_ANOMALY": 201.2454, "EPHEMERIS_TYPE": 0, "CLASSIFICATION_TYPE": "U", "NORAD_CAT_ID": 34304, "ELEMENT_SET_NO": 999, "REV_AT_EPOCH": 87173, "BSTAR": 0.0026898741, "MEAN_MOTION_DOT": 8.891e-05, "MEAN_MOTION_DDOT": 0}, "tle": {"line1": "1 34304U 93036NA  25338.15746957  .00008891  00000+0  26899-2 0  9991", "line2": "2 34304  74.0120 138.4236 0128865 277.9676 201.2454 14.37735026871733"}}, "geometry": {"type": "Point", "coordinates": [113.90206186314448, -51.81257862323568]}}, {"type": "Feature", "properties": {"norad_id": 34307, "name": "COSMOS 2251 DEB", "group": "cosmos-2251-debris", "lat": 47.65921902315052, "lon": -17.562699021488516, "alt_km": 1123.0037580711996, "timestamp": "2025-12-05T20:43:02.447527+00:00", "meta": {"OBJECT_NAME": "COSMOS 2251 DEB", "OBJECT_ID": "1993-036ND", "EPOCH": "2025-12-04T16:39:27.057024", "MEAN_MOTION": 13.54305019, "ECCENTRICITY": 0.03923181, "INCLINATION": 74.053, "RA_OF_ASC_NODE": 326.0262, "ARG_OF_PERICENTER": 158.7304, "MEAN_ANOMALY": 317.8176, "EPHEMERIS_TYPE": 0, "CLASSIFICATION_TYPE": "U", "NORAD_CAT_ID": 34307, "ELEMENT_SET_NO": 999, "REV_AT_EPOCH": 82753, "BSTAR": 0.00093739018, "MEAN_MOTION_DOT": 1.024e-05, "MEAN_MOTION_DDOT": 0}, "tle": {"line1": "1 34307U 93036ND  25338.69406316  .00001024  00000+0  93739-3 0  9994", "line2": "2 34307  74.0530 326.0262 0392318 158.7304 317.8176 13.54305019827532"}}, "geometry": {"type": "Point", "coordinates": [-17.562699021488516, 47.65921902315052]}}, {"type": "Feature", "properties": {"norad_id": 34313, "name": "COSMOS 2251 DEB", "group": "cosmos-2251-debris", "lat": 66.15867129654103, "lon": 99.34257796384875, "alt_km": 499.7286686728694, "timestamp": "2025-12-05T20:43:02.447537+00:00", "meta": {"OBJECT_NAME": "COSMOS 2251 DEB", "OBJECT_ID": "1993-036NK", "EPOCH": "2025-12-05T07:35:08.652768", "MEAN_MOTION": 15.17315202, "ECCENTRICITY": 0.00107955, "INCLINATION": 73.9714, "RA_OF_ASC_NODE": 321.0716, "ARG_OF_PERICENTER": 90.0577, "MEAN_ANOMALY": 270.1856, "EPHEMERIS_TYPE": 0, "CLASSIFICATION_TYPE": "U", "NORAD_CAT_ID": 34313, "ELEMENT_SET_NO": 999, "REV_AT_EPOCH": 88952, "BSTAR": 0.0060005688, "MEAN_MOTION_DOT": 0.00121847, "MEAN_MOTION_DDOT": 0}, "tle": {"line1": "1 34313U 93036NK  25339.31607237  .00121847  00000+0  60006-2 0  9992", "line2": "2 34313  73.9714 321.0716 0010795  90.0577 270.1856 15.17315202889525"}}, "geometry": {"type": "Point", "coordinates": [99.34257796384875, 66.15867129654103]}}, {"type": "Feature", "properties": {"norad_id": 34314, "name": "COSMOS 2251 DEB", "group": "cosmos-2251-debris", "lat": 69.09195500742298, "lon": 91.99541788324407, "alt_km": 766.6052144968535, "timestamp": "2025-12-05T20:43:02.447547+00:00", "meta": {"OBJECT_NAME": "COSMOS 2251 DEB", "OBJECT_ID": "1993-036NL", "EPOCH": "2025-12-05T02:07:19.951968", "MEAN_MOTION": 14.17394101, "ECCENTRICITY": 0.01025694, "INCLINATION": 74.0054, "RA_OF_ASC_NODE": 322.0377, "ARG_OF_PERICENTER": 69.6853, "MEAN_ANOMALY": 41.3047, "EPHEMERIS_TYPE": 0, "CLASSIFICATION_TYPE": "U", "NORAD_CAT_ID": 34314, "ELEMENT_SET_NO": 999, "REV_AT_EPOCH": 86549, "BSTAR": 0.0011079166, "MEAN_MOTION_DOT": 2.338e-05, "MEAN_MOTION_DDOT": 0}, "tle": {"line1": "1 34314U 93036NL  25339.08842537  .00002338  00000+0  11079-2 0  9990", "line2": "2 34314  74.0054 322.0377 0102569  69.6853  41.3047 14.17394101865493"}}, "geometry": {"type": "Point", "coordinates": [91.99541788324407, 69.09195500742298]}}, {"type": "Feature", "properties": {"norad_id": 34316, "name": "COSMOS 2251 DEB", "group": "cosmos-2251-debris", "lat": -70.11212828222715, "lon": -137.17071205809825, "alt_km": 605.6023824217209, "timestamp": "2025-12-05T20:43:02.447569+00:00", "meta": {"OBJECT_NAME": "COSMOS 2251 DEB", "OBJECT_ID": "1993-036NN", "EPOCH": "2025-12-05T01:51:25.739136", "MEAN_MOTION": 14.91480765, "ECCENTRICITY": 0.00078941, "INCLINATION": 74.0647, "RA_OF_ASC_NODE": 352.2342, "ARG_OF_PERICENTER": 80.4169, "MEAN_ANOMALY": 279.7905, "EPHEMERIS_TYPE": 0, "CLASSIFICATION_TYPE": "U", "NORAD_CAT_ID": 34316, "ELEMENT_SET_NO": 999, "REV_AT_EPOCH": 89095, "BSTAR": 0.0029928688, "MEAN_MOTION_DOT": 0.00030065, "MEAN_MOTION_DDOT": 0}, "tle": {"line1": "1 34316U 93036NN  25339.07738124  .00030065  00000+0  29929-2 0  9998", "line2": "2 34316  74.0647 352.2342 0007894  80.4169 279.7905 14.91480765890959"}}, "geometry": {"type": "Point", "coordinates": [-137.17071205809825, -70.11212828222715]}}, {"type": "Feature", "properties": {"norad_id": 34317, "name": "COSMOS 2251 DEB", "group": "cosmos-2251-debris", "lat": -65.5641437211493, "lon": -93.53267826325354, "alt_km": 1228.5249928429712, "timestamp": "2025-12-05T20:43:02.447579+00:00", "meta": {"OBJECT_NAME": "COSMOS 2251 DEB", "OBJECT_ID": "1993-036NP", "EPOCH": "2025-12-05T07:29:44.694240", "MEAN_MOTION": 13.65112631, "ECCENTRICITY": 0.03363166, "INCLINATION": 73.9249, "RA_OF_ASC_NODE": 47.9847, "ARG_OF_PERICENTER": 38.6995, "MEAN_ANOMALY": 28.4614, "EPHEMERIS_TYPE": 0, "CLASSIFICATION_TYPE": "U", "NORAD_CAT_ID": 34317, "ELEMENT_SET_NO": 999, "REV_AT_EPOCH": 83518, "BSTAR": 0.00059831923, "MEAN_MOTION_DOT": 6.92e-06, "MEAN_MOTION_DDOT": 0}, "tle": {"line1": "1 34317U 93036NP  25339.31232285  .00000692  00000+0  59832-3 0  9993", "line2": "2 34317  73.9249  47.9847 0336316  38.6995  28.4614 13.65112631835184"}}, "geometry": {"type": "Point", "coordinates": [-93.53267826325354, -65.5641437211493]}}, {"type": "Feature", "properties": {"norad_id": 34321, "name": "COSMOS 2251 DEB", "group": "cosmos-2251-debris", "lat": -3.062344631403152, "lon": 168.40331046168225, "alt_km": 722.6973546795598, "timestamp": "2025-12-05T20:43:02.447589+00:00", "meta": {"OBJECT_NAME": "COSMOS 2251 DEB", "OBJECT_ID": "1993-036NT", "EPOCH": "2025-12-04T23:46:12.261216", "MEAN_MOTION": 14.50004922, "ECCENTRICITY": 0.001565, "INCLINATION": 74.0277, "RA_OF_ASC_NODE": 170.9204, "ARG_OF_PERICENTER": 300.9354, "MEAN_ANOMALY": 181.6396, "EPHEMERIS_TYPE": 0, "CLASSIFICATION_TYPE": "U", "NORAD_CAT_ID": 34321, "ELEMENT_SET_NO": 999, "REV_AT_EPOCH": 88374, "BSTAR": 0.0010922, "MEAN_MOTION_DOT": 4.211e-05, "MEAN_MOTION_DDOT": 0}, "tle": {"line1": "1 34321U 93036NT  25338.99041969  .00004211  00000+0  10922-2 0  9995", "line2": "2 34321  74.0277 170.9204 0015650 300.9354 181.6396 14.50004922883747"}}, "geometry": {"type": "Point", "coordinates": [168.40331046168225, -3.062344631403152]}}, {"type": "Feature", "properties": {"norad_id": 34323, "name": "COSMOS 2251 DEB", "group": "cosmos-2251-debris", "lat": 44.721428481961595, "lon": -59.956837816452236, "alt_km": 615.9050139420924, "timestamp": "2025-12-05T20:43:02.447599+00:00", "meta": {"OBJECT_NAME": "COSMOS 2251 DEB", "OBJECT_ID": "1993-036NV", "EPOCH": "2025-12-04T13:27:56.308032", "MEAN_MOTION": 14.73983998, "ECCENTRICITY": 0.0060809, "INCLINATION": 73.9522, "RA_OF_ASC_NODE": 139.1582, "ARG_OF_PERICENTER": 184.9957, "MEAN_ANOMALY": 241.3253, "EPHEMERIS_TYPE": 0, "CLASSIFICATION_TYPE": "U", "NORAD_CAT_ID": 34323, "ELEMENT_SET_NO": 999, "REV_AT_EPOCH": 88319, "BSTAR": 0.0057979, "MEAN_MOTION_DOT": 0.00039435, "MEAN_MOTION_DDOT": 0}, "tle": {"line1": "1 34323U 93036NV  25338.56106838  .00039435  00000+0  57979-2 0  9996", "line2": "2 34323  73.9522 139.1582 0060809 184.9957 241.3253 14.73983998883190"}}, "geometry": {"type": "Point", "coordinates": [-59.956837816452236, 44.721428481961595]}}, {"type": "Feature", "properties": {"norad_id": 34325, "name": "COSMOS 2251 DEB", "group": "cosmos-2251-debris", "lat": -72.73018143044249, "lon": 136.36987956909834, "alt_km": 798.6989054150708, "timestamp": "2025-12-05T20:43:02.447610+00:00", "meta": {"OBJECT_NAME": "COSMOS 2251 DEB", "OBJECT_ID": "1993-036NX", "EPOCH": "2025-12-04T10:03:25.519968", "MEAN_MOTION": 14.0439565, "ECCENTRICITY": 0.019312, "INCLINATION": 73.8712, "RA_OF_ASC_NODE": 207.4667, "ARG_OF_PERICENTER": 226.4548, "MEAN_ANOMALY": 309.3059, "EPHEMERIS_TYPE": 0, "CLASSIFICATION_TYPE": "U", "NORAD_CAT_ID": 34325, "ELEMENT_SET_NO": 999, "REV_AT_EPOCH": 85398, "BSTAR": 0.0037133, "MEAN_MOTION_DOT": 6.962e-05, "MEAN_MOTION_DDOT": 0}, "tle": {"line1": "1 34325U 93036NX  25338.41904537  .00006962  00000+0  37133-2 0  9993", "line2": "2 34325  73.8712 207.4667 0193120 226.4548 309.3059 14.04395650853985"}}, "geometry": {"type": "Point", "coordinates": [136.36987956909834, -72.73018143044249]}}]}